0 SL-3 R/B
1 11683U 80008B   13281.81701611  .00020202  00000-0  30298-3 0  1404
2 11683 081.1809 344.6571 0014758 222.0207 137.9912 15.54651922853017
0 SL-3 R/B
1 11683U 80008B   13282.46064859  .00028216  00000-0  42227-3 0  1411
2 11683 081.1811 343.8647 0014789 219.6478 140.3691 15.54698866853112
0 SL-3 R/B
1 11683U 80008B   13283.16862543  .00024174  00000-0  36143-3 0  1425
2 11683 081.1811 342.9931 0014824 217.0508 142.9720 15.54730940853227
0 SL-3 R/B
1 11683U 80008B   13283.68351606  .00035872  00000-0  53805-3 0  1437
2 11683 081.1810 342.3598 0014821 215.5642 144.5143 15.54754835853303
0 SL-3 R/B
1 11683U 80008B   13284.13402433  .00024133  00000-0  36033-3 0  1435
2 11683 081.1813 341.8047 0014840 213.5169 146.5143 15.54767522853378
0 SL-3 R/B
1 11683U 80008B   13286.19346220  .00021477  00000-0  31969-3 0  1457
2 11683 081.1814 339.2697 0014947 205.9054 154.1449 15.54852791853699
0 SL-3 R/B
1 11683U 80008B   13287.48055406  .00023101  00000-0  34328-3 0  1462
2 11683 081.1811 337.6850 0015002 201.3227 158.7399 15.54896641853892
0 SL-3 R/B
1 11683U 80008B   13288.51019454  .00029325  00000-0  43465-3 0  1477
2 11683 081.1806 336.4176 0015014 197.5354 162.5379 15.54956394854056
0 SL-3 R/B
1 11683U 80008B   13289.79719370  .00028407  00000-0  42016-3 0  1484
2 11683 081.1800 334.8327 0015092 193.0471 167.0391 15.55014237854255
0 SL-3 R/B
1 11683U 80008B   13291.14849193  .00025314  00000-0  37356-3 0  1499
2 11683 081.1795 333.1684 0015152 188.1647 171.9358 15.55080974854464
0 SL-3 R/B
1 11683U 80008B   13292.17801550  .00023472  00000-0  34582-3 0  1501
2 11683 081.1793 331.9001 0015243 184.5793 175.5320 15.55125953854628
0 SL-3 R/B
1 11683U 80008B   13293.46487709  .00025849  00000-0  38002-3 0  1512
2 11683 081.1791 330.3145 0015303 179.9149 180.2106 15.55179441854826
0 SL-3 R/B
1 11683U 80008B   13294.49433290  .00027814  00000-0  40821-3 0  1529
2 11683 081.1790 329.0460 0015378 176.2086 183.9284 15.55221669854986
0 SL-3 R/B
1 11683U 80008B   13295.52376087  .00028213  00000-0  41329-3 0  1533
2 11683 081.1790 327.7775 0015438 172.4769 187.6715 15.55270544855148
